{"type": "FeatureCollection", "features": [ {"type": "Feature", "properties": {"norad_id": 66535, "name": "STARLINK-35514", "group": "last-30-days", "lat": -38.43370741424742, "lon": -68.89417357320721, "alt_km": 417.1596141859509, "timestamp": "2025-12-12T22:42:11.305784+00:00", "meta": {"OBJECT_NAME": "STARLINK-35514", "OBJECT_ID": "2025-265V", "EPOCH": "2025-12-12T06:00:00.999648", "MEAN_MOTION": 15.505499, "ECCENTRICITY": 0.00016222, "INCLINATION": 43.0006, "RA_OF_ASC_NODE": 56.7949, "ARG_OF_PERICENTER": 264.7222, "MEAN_ANOMALY": 51.4987, "EPHEMERIS_TYPE": 0, "CLASSIFICATION_TYPE": "U", "NORAD_CAT_ID": 66535, "ELEMENT_SET_NO": 999, "REV_AT_EPOCH": 491, "BSTAR": 0.00052419619, "MEAN_MOTION_DOT": 0.00030498, "MEAN_MOTION_DDOT": 0}, "tle": {"line1": "1 66535U 25265V   25346.25001157  .00030498  00000+0  52420-3 0  9995", "line2": "2 66535  43.0006  56.7949 0001622 264.7222  51.4987 15.50549900  4912"}}, "geometry": {"type": "Point", "coordinates": [-68.89417357320721, -38.43370741424742]}}, {"type": "Feature", "properties": {"norad_id": 66536, "name": "STARLINK-35640", "group": "last-30-days", "lat": -39.09229808833051, "lon": -66.6056762685445, "alt_km": 417.4720969183609, "timestamp": "2025-12-12T22:42:11.305794+00:00", "meta": {"OBJECT_NAME": "STARLINK-35640", "OBJECT_ID": "2025-265W", "EPOCH": "2025-12-12T06:00:00.999648", "MEAN_MOTION": 15.50545984, "ECCENTRICITY": 0.00011599, "INCLINATION": 43.0004, "RA_OF_ASC_NODE": 56.7902, "ARG_OF_PERICENTER": 263.3369, "MEAN_ANOMALY": 54.7989, "EPHEMERIS_TYPE": 0, "CLASSIFICATION_TYPE": "U", "NORAD_CAT_ID": 66536, "ELEMENT_SET_NO": 999, "REV_AT_EPOCH": 489, "BSTAR": 0.00052711307, "MEAN_MOTION_DOT": 0.00030666, "MEAN_MOTION_DDOT": 0}, "tle": {"line1": "1 66536U 25265W   25346.25001157  .00030666  00000+0  52711-3 0  9996", "line2": "2 66536  43.0004  56.7902 0001159 263.3369  54.7989 15.50545984  4895"}}, "geometry": {"type": "Point", "coordinates": [-66.6056762685445, -39.09229808833051]}}, {"type": "Feature", "properties": {"norad_id": 66537, "name": "STARLINK-35582", "group": "last-30-days", "lat": -39.78152851530431, "lon": -63.97065777721288, "alt_km": 417.2859050782836, "timestamp": "2025-12-12T22:42:11.305804+00:00", "meta": {"OBJECT_NAME": "STARLINK-35582", "OBJECT_ID": "2025-265X", "EPOCH": "2025-12-12T06:00:00.999648", "MEAN_MOTION": 15.50731762, "ECCENTRICITY": 0.0001351, "INCLINATION": 43.0006, "RA_OF_ASC_NODE": 56.7854, "ARG_OF_PERICENTER": 261.1373, "MEAN_ANOMALY": 58.8932, "EPHEMERIS_TYPE": 0, "CLASSIFICATION_TYPE": "U", "NORAD_CAT_ID": 66537, "ELEMENT_SET_NO": 999, "REV_AT_EPOCH": 491, "BSTAR": -0.0014773012, "MEAN_MOTION_DOT": -0.00086525, "MEAN_MOTION_DDOT": 0}, "tle": {"line1": "1 66537U 25265X   25346.25001157 -.00086525  00000+0 -14773-2 0  9999", "line2": "2 66537  43.0006  56.7854 0001351 261.1373  58.8932 15.50731762  4916"}}, "geometry": {"type": "Point", "coordinates": [-63.97065777721288, -39.78152851530431]}}, {"type": "Feature", "properties": {"norad_id": 66538, "name": "STARLINK-35577", "group": "last-30-days", "lat": -40.25896145492981, "lon": -61.958485359364424, "alt_km": 417.19404369844597, "timestamp": "2025-12-12T22:42:11.305816+00:00", "meta": {"OBJECT_NAME": "STARLINK-35577", "OBJECT_ID": "2025-265Y", "EPOCH": "2025-12-12T06:00:00.999648", "MEAN_MOTION": 15.50496154, "ECCENTRICITY": 0.0001445, "INCLINATION": 43.0005, "RA_OF_ASC_NODE": 56.7801, "ARG_OF_PERICENTER": 262.7669, "MEAN_ANOMALY": 59.1499, "EPHEMERIS_TYPE": 0, "CLASSIFICATION_TYPE": "U", "NORAD_CAT_ID": 66538, "ELEMENT_SET_NO": 999, "REV_AT_EPOCH": 491, "BSTAR": 0.0016883829, "MEAN_MOTION_DOT": 0.00099683, "MEAN_MOTION_DDOT": 0}, "tle": {"line1": "1 66538U 25265Y   25346.25001157  .00099683  00000+0  16884-2 0  9992", "line2": "2 66538  43.0005  56.7801 0001445 262.7669  59.1499 15.50496154  4912"}}, "geometry": {"type": "Point", "coordinates": [-61.958485359364424, -40.25896145492981]}}, {"type": "Feature", "properties": {"norad_id": 66539, "name": "STARLINK-35697", "group": "last-30-days", "lat": -40.78927435661754, "lon": -59.48705365430253, "alt_km": 416.88331652324723, "timestamp": "2025-12-12T22:42:11.305828+00:00", "meta": {"OBJECT_NAME": "STARLINK-35697", "OBJECT_ID": "2025-265Z", "EPOCH": "2025-12-12T06:00:00.999648", "MEAN_MOTION": 15.50535926, "ECCENTRICITY": 0.00017767, "INCLINATION": 43.0007, "RA_OF_ASC_NODE": 56.7753, "ARG_OF_PERICENTER": 239.6128, "MEAN_ANOMALY": 84.1684, "EPHEMERIS_TYPE": 0, "CLASSIFICATION_TYPE": "U", "NORAD_CAT_ID": 66539, "ELEMENT_SET_NO": 999, "REV_AT_EPOCH": 491, "BSTAR": 0.0015563663, "MEAN_MOTION_DOT": 0.00091901, "MEAN_MOTION_DDOT": 0}, "tle": {"line1": "1 66539U 25265Z   25346.25001157  .00091901  00000+0  15564-2 0  9992", "line2": "2 66539  43.0007  56.7753 0001776 239.6128  84.1684 15.50535926  4916"}}, "geometry": {"type": "Point", "coordinates": [-59.48705365430253, -40.78927435661754]}}, {"type": "Feature", "properties": {"norad_id": 66540, "name": "STARLINK-35818", "group": "last-30-days", "lat": -41.244002343140956, "lon": -57.09801780787796, "alt_km": 417.17080110544157, "timestamp": "2025-12-12T22:42:11.305839+00:00", "meta": {"OBJECT_NAME": "STARLINK-35818", "OBJECT_ID": "2025-265AA", "EPOCH": "2025-12-12T06:00:00.999648", "MEAN_MOTION": 15.50473445, "ECCENTRICITY": 0.00016566, "INCLINATION": 43.0005, "RA_OF_ASC_NODE": 56.7702, "ARG_OF_PERICENTER": 260.1559, "MEAN_ANOMALY": 65.655, "EPHEMERIS_TYPE": 0, "CLASSIFICATION_TYPE": "U", "NORAD_CAT_ID": 66540, "ELEMENT_SET_NO": 999, "REV_AT_EPOCH": 491, "BSTAR": 0.0015478507, "MEAN_MOTION_DOT": 0.00091184, "MEAN_MOTION_DDOT": 0}, "tle": {"line1": "1 66540U 25265AA  25346.25001157  .00091184  00000+0  15479-2 0  9992", "line2": "2 66540  43.0005  56.7702 0001656 260.1559  65.6550 15.50473445  4917"}}, "geometry": {"type": "Point", "coordinates": [-57.09801780787796, -41.244002343140956]}}, {"type": "Feature", "properties": {"norad_id": 66541, "name": "STARLINK-35796", "group": "last-30-days", "lat": -41.674326102821865, "lon": -54.51102560911613, "alt_km": 417.3472310545403, "timestamp": "2025-12-12T22:42:11.305849+00:00", "meta": {"OBJECT_NAME": "STARLINK-35796", "OBJECT_ID": "2025-265AB", "EPOCH": "2025-12-12T06:00:00.999648", "MEAN_MOTION": 15.50649638, "ECCENTRICITY": 0.00017523, "INCLINATION": 43.0004, "RA_OF_ASC_NODE": 56.7655, "ARG_OF_PERICENTER": 262.3381, "MEAN_ANOMALY": 65.3471, "EPHEMERIS_TYPE": 0, "CLASSIFICATION_TYPE": "U", "NORAD_CAT_ID": 66541, "ELEMENT_SET_NO": 999, "REV_AT_EPOCH": 491, "BSTAR": -0.0016161334, "MEAN_MOTION_DOT": -0.00094259, "MEAN_MOTION_DDOT": 0}, "tle": {"line1": "1 66541U 25265AB  25346.25001157 -.00094259  00000+0 -16161-2 0  9990", "line2": "2 66541  43.0004  56.7655 0001752 262.3381  65.3471 15.50649638  4916"}}, "geometry": {"type": "Point", "coordinates": [-54.51102560911613, -41.674326102821865]}}, {"type": "Feature", "properties": {"norad_id": 66542, "name": "STARLINK-35833", "group": "last-30-days", "lat": -42.03285906425242, "lon": -51.99093129218889, "alt_km": 417.37165219038616, "timestamp": "2025-12-12T22:42:11.305858+00:00", "meta": {"OBJECT_NAME": "STARLINK-35833", "OBJECT_ID": "2025-265AC", "EPOCH": "2025-12-12T06:00:00.999648", "MEAN_MOTION": 15.50546353, "ECCENTRICITY": 0.00014271, "INCLINATION": 43.0005, "RA_OF_ASC_NODE": 56.7612, "ARG_OF_PERICENTER": 258.3037, "MEAN_ANOMALY": 71.3367, "EPHEMERIS_TYPE": 0, "CLASSIFICATION_TYPE": "U", "NORAD_CAT_ID": 66542, "ELEMENT_SET_NO": 999, "REV_AT_EPOCH": 491, "BSTAR": 0.00051955347, "MEAN_MOTION_DOT": 0.0003022, "MEAN_MOTION_DDOT": 0}, "tle": {"line1": "1 66542U 25265AC  25346.25001157  .00030220  00000+0  51955-3 0  9998", "line2": "2 66542  43.0005  56.7612 0001427 258.3037  71.3367 15.50546353  4914"}}, "geometry": {"type": "Point", "coordinates": [-51.99093129218889, -42.03285906425242]}}, {"type": "Feature", "properties": {"norad_id": 66543, "name": "STARLINK-35315", "group": "last-30-days", "lat": -42.3366661199727, "lon": -49.434681705429725, "alt_km": 417.48158622187657, "timestamp": "2025-12-12T22:42:11.305868+00:00", "meta": {"OBJECT_NAME": "STARLINK-35315", "OBJECT_ID": "2025-265AD", "EPOCH": "2025-12-12T06:00:00.999648", "MEAN_MOTION": 15.50545976, "ECCENTRICITY": 0.00012668, "INCLINATION": 43.0006, "RA_OF_ASC_NODE": 56.7558, "ARG_OF_PERICENTER": 255.3665, "MEAN_ANOMALY": 76.1941, "EPHEMERIS_TYPE": 0, "CLASSIFICATION_TYPE": "U", "NORAD_CAT_ID": 66543, "ELEMENT_SET_NO": 999, "REV_AT_EPOCH": 480, "BSTAR": 0.00056539465, "MEAN_MOTION_DOT": 0.00032928, "MEAN_MOTION_DDOT": 0}, "tle": {"line1": "1 66543U 25265AD  25346.25001157  .00032928  00000+0  56539-3 0  9999", "line2": "2 66543  43.0006  56.7558 0001266 255.3665  76.1941 15.50545976  4809"}}, "geometry": {"type": "Point", "coordinates": [-49.434681705429725, -42.3366661199727]}}, {"type": "Feature", "properties": {"norad_id": 66544, "name": "STARLINK-35728", "group": "last-30-days", "lat": -42.58167264404842, "lon": -46.86691831716732, "alt_km": 417.34892195240445, "timestamp": "2025-12-12T22:42:11.305880+00:00", "meta": {"OBJECT_NAME": "STARLINK-35728", "OBJECT_ID": "2025-265AE", "EPOCH": "2025-12-12T06:00:00.999648", "MEAN_MOTION": 15.50556396, "ECCENTRICITY": 0.00014879, "INCLINATION": 43.0004, "RA_OF_ASC_NODE": 56.751, "ARG_OF_PERICENTER": 256.3433, "MEAN_ANOMALY": 77.1239, "EPHEMERIS_TYPE": 0, "CLASSIFICATION_TYPE": "U", "NORAD_CAT_ID": 66544, "ELEMENT_SET_NO": 999, "REV_AT_EPOCH": 491, "BSTAR": 0.00040443392, "MEAN_MOTION_DOT": 0.00023436, "MEAN_MOTION_DDOT": 0}, "tle": {"line1": "1 66544U 25265AE  25346.25001157  .00023436  00000+0  40443-3 0  9991", "line2": "2 66544  43.0004  56.7510 0001487 256.3433  77.1239 15.50556396  4916"}}, "geometry": {"type": "Point", "coordinates": [-46.86691831716732, -42.58167264404842]}}]}